OBJECT_NAME,OBJECT_ID,EPOCH,MEAN_MOTION,ECCENTRICITY,INCLINATION,RA_OF_ASC_NODE,ARG_OF_PERICENTER,MEAN_ANOMALY,EPHEMERIS_TYPE,CLASSIFICATION_TYPE,NORAD_CAT_ID,ELEMENT_SET_NO,REV_AT_EPOCH,BSTAR,MEAN_MOTION_DOT,MEAN_MOTION_DDOT
FLOCK 4BE-27,2024-149AX,2026-07-15T18:04:05.818368,15.34924575,.00040918,97.3827,278.6254,180.4022,179.7219,0,U,60513,999,10652,.17429443E-3,.5823E-4,0
FLOCK 4BE-9,2024-149AY,2026-07-15T18:53:54.580992,15.41617186,.00037514,97.3792,281.3519,168.9855,191.1475,0,U,60514,999,10672,.30026068E-3,.12558E-3,0
FLOCK 4BE-6,2024-149BA,2026-07-15T18:35:13.247232,15.40327147,.00044186,97.3789,280.6416,171.2292,188.9032,0,U,60516,999,10667,.23214987E-3,.9281E-4,0
FLOCK 4BE-14,2024-149BB,2026-07-15T19:05:48.638112,15.41868142,.00054532,97.3694,280.8270,174.8160,185.3145,0,U,60517,999,10673,.26771017E-3,.11283E-3,0
FLOCK 4BE-1,2024-149BC,2026-07-15T18:45:15.035328,15.43525871,.0005016,97.3780,282.1939,174.3404,185.7902,0,U,60518,999,10678,.27803054E-3,.12392E-3,0
FLOCK 4BE-28,2024-149BD,2026-07-15T19:34:16.244256,15.46326227,.00052587,97.3749,283.0464,173.7319,186.3997,0,U,60519,999,10686,.55422511E-3,.27319E-3,0
IPERDRONE.0,2024-149BE,2026-07-15T19:36:16.953696,15.71139806,.00040224,97.3773,291.5365,166.8233,193.3136,0,U,60520,999,10740,.49782894E-3,.62885E-3,0
TRANSPORTER-11 OBJECT BF,2024-149BF,2026-07-15T19:13:54.260544,16.11780645,.00109313,97.3807,295.4195,249.1592,110.8522,0,U,60521,999,10764,.97568559E-3,.1016119E-1,.63981261E-3
CONNECTA IOT-2,2024-149BG,2026-07-15T17:45:34.810272,15.24197557,.0005618,97.3836,274.4556,210.6026,149.4885,0,U,60522,999,10624,.10604602E-3,.2513E-4,0
CONNECTA IOT-4,2024-149BJ,2026-07-15T17:56:43.217088,15.43184698,.00060442,97.3799,281.4758,173.3222,186.8107,0,U,60524,999,10673,.30099881E-3,.13274E-3,0
ORESAT0.5,2024-149BK,2026-07-15T17:36:50.357088,15.46122446,.00062317,97.3728,283.1914,162.7489,197.3973,0,U,60525,999,10688,.27892768E-3,.13587E-3,0
DEIMOS,2024-149BL,2026-07-15T18:46:47.065152,15.45207671,.00060236,97.3782,283.3664,168.4372,191.7016,0,U,60526,999,10686,.27814663E-3,.1313E-3,0
CUAVA-2,2024-149BM,2026-07-15T22:25:59.357856,15.36743933,.00069063,97.3723,278.5143,176.9739,183.1549,0,U,60527,999,10658,.1961943E-3,.6965E-4,0
ERNST,2024-149BN,2026-07-15T18:25:32.551968,15.39903757,.00062271,97.3808,280.7152,177.1921,182.9361,0,U,60528,999,10667,.19608787E-3,.7718E-4,0
TORO,2024-149BQ,2026-07-15T22:11:57.594624,14.96517369,.0001136,97.6775,271.0565,100.7622,259.3728,0,U,60530,999,10425,.48791601E-4,.498E-5,0
HYPSO-2,2024-149BR,2026-07-15T10:33:12.149280,14.98934859,.00017831,97.6841,272.2902,98.4846,261.6579,0,U,60531,999,10428,.12280414E-3,.1427E-4,0
LEMU NGE,2024-149BS,2026-07-15T03:53:35.854656,14.95060561,.00005946,97.6837,270.5567,85.2508,274.8780,0,U,60532,999,10413,.12934662E-3,.136E-4,0
LEMUR-2-STELLA,2024-149BT,2026-07-15T17:38:55.907520,15.12378243,.00012416,97.6737,279.3258,118.9056,241.2299,0,U,60533,999,10481,.34817455E-3,.5975E-4,0
SATELIOT_2,2024-149BU,2026-07-15T04:15:59.418720,14.96459257,.00015894,97.6824,270.6236,75.7302,284.4096,0,U,60534,999,10415,.54147991E-4,.557E-5,0
NIGHTJAR,2024-149BV,2026-07-15T18:15:12.495456,14.99171980,.00026674,97.6840,273.0666,95.1319,265.0208,0,U,60535,999,14715,.18753883E-3,.2224E-4,0
LEMUR-2-MARHISYAM,2024-149BW,2026-07-15T19:01:27.649632,15.11785796,.00023539,97.6878,279.8606,68.7534,291.3947,0,U,60536,999,10480,.3763029E-3,.6358E-4,0
SATELIOT_4,2024-149BX,2026-07-15T12:24:45.197856,14.96759443,.00010029,97.6731,270.4648,343.4061,16.7128,0,U,60537,999,10421,.36685746E-4,.363E-5,0
PICO-02A021,2024-149BY,2026-07-15T04:29:55.245408,15.03488388,.00036514,97.6742,274.7818,280.3621,79.7192,0,U,60538,999,10394,.1450119E-3,.1915E-4,0
ICEYE-X43,2024-149BZ,2026-07-15T18:50:54.572640,14.99787819,.00064811,97.6799,273.3667,345.1881,14.9151,0,U,60539,999,10440,.67353928E-4,.774E-5,0
HAWK-10A,2024-149CA,2026-07-15T18:52:22.939104,14.96592968,.00030433,97.6890,272.2064,0.8178,359.3048,0,U,60540,999,10426,.21604796E-4,.189E-5,0
UMBRA-09,2024-149CB,2026-07-15T19:10:14.522016,15.18864080,.00020754,97.6974,284.5108,201.7624,158.3522,0,U,60541,999,10506,.55165805E-3,.11437E-3,0
QPS-SAR-8 (AMATERU-IV),2024-149CC,2026-07-15T22:18:55.156320,15.04398420,.00036447,97.6658,275.8425,42.4831,317.6676,0,U,60542,999,10459,.14151109E-3,.1914E-4,0
ARCTIC WEATHER SATELLITE,2024-149CD,2026-07-15T21:36:07.140096,14.89804101,.00027903,97.6791,266.5433,49.2667,310.8793,0,U,60543,999,10357,.38188416E-4,.313E-5,0
CAPELLA-15 (ACADIA-5),2024-149CE,2026-07-15T05:08:41.600832,14.92405560,.0003244,97.6759,268.4148,341.5394,18.5707,0,U,60544,999,10403,.23867E-3,.2389E-4,0
HAWK-10B,2024-149CF,2026-07-15T18:52:11.153280,14.96591844,.00053953,97.6808,271.5325,12.3131,347.8222,0,U,60545,999,10426,.22051807E-4,.194E-5,0
